name,type,lat,lng,address,tel,openTime,level,typeLabels,description,groupSize,source
大安森林公園1號和平東路,TOILET,25.0277985,121.5351535,臺北市大安區龍門里新生南路二段1號,02-23032451,全天開放,優等級,無障礙、女、男,地址：臺北市大安區龍門里新生南路二段1號；電話：02-23032451；開放時間：全天開放；等級：優等級；,3,tw_public
大安森林公園2號音樂臺南側,TOILET,25.0296237,121.5352253,臺北市大安區龍門里新生南路二段1號,02-23032451,全天開放,優等級,女、親子、男,地址：臺北市大安區龍門里新生南路二段1號；電話：02-23032451；開放時間：全天開放；等級：優等級；,3,tw_public
大安森林公園1號和平東路,TOILET,25.030152,121.535351,臺北市大安區龍門里新生南路二段1號,02-23032451,全天開放,優等級,男、親子、女,地址：臺北市大安區龍門里新生南路二段1號；電話：02-23032451；開放時間：全天開放；等級：優等級；,4,tw_public
大安森林公園4號信義路,TOILET,25.0327332,121.5348566,臺北市大安區龍門里新生南路二段1號,02-23032451,全天開放,優等級,親子、男、女,地址：臺北市大安區龍門里新生南路二段1號；電話：02-23032451；開放時間：全天開放；等級：優等級；,3,tw_public
大安森林公園5號建國南路,TOILET,25.0290058,121.5371574,臺北市大安區龍門里新生南路二段1號,02-23032451,全天開放,優等級,無障礙、男、女,地址：臺北市大安區龍門里新生南路二段1號；電話：02-23032451；開放時間：全天開放；等級：優等級；,3,tw_public
大安森林公園6號建國南路,TOILET,25.0322917,121.5370359,臺北市大安區龍門里新生南路二段1號,02-23032451,全天開放,優等級,親子、男、女,地址：臺北市大安區龍門里新生南路二段1號；電話：02-23032451；開放時間：全天開放；等級：優等級；,3,tw_public
永康公園女廁,TOILET,25.03152,121.5296486,臺北市大安區福住里永康街8號,02-23032451,全天開放,優等級,女,地址：臺北市大安區福住里永康街8號；電話：02-23032451；開放時間：全天開放；等級：優等級；,1,tw_public
永康公園,TOILET,25.031503,121.5296486,臺北市大安區福住里永康街8號,02-23032451,全天開放,優等級,無障礙,地址：臺北市大安區福住里永康街8號；電話：02-23032451；開放時間：全天開放；等級：優等級；,1,tw_public
台灣中油金山南路加油站,TOILET,25.03148,121.527198,臺北市大安區永康里金山南路二段77號,02-23518346,07：00~23：59,特優級,女、無障礙,地址：臺北市大安區永康里金山南路二段77號；電話：02-23518346；開放時間：07：00~23：59；等級：特優級；,2,tw_public
台灣中油新生南路加油站女廁,TOILET,25.0384729,121.5331972,臺北市大安區民輝里仁愛路三段1號,02-27112316,07：00~22：00,特優級,女,地址：臺北市大安區民輝里仁愛路三段1號；電話：02-27112316；開放時間：07：00~22：00；等級：特優級；,1,tw_public
陽光加油站,TOILET,25.044017,121.536225,臺北市大安區民輝里建國南路一段57-1號,02-25078006,全天開放,特優級,女、無障礙、男,地址：臺北市大安區民輝里建國南路一段57-1號；電話：02-25078006；開放時間：全天開放；等級：特優級；,3,tw_public
勝利加油站,TOILET,25.030951,121.538139,臺北市大安區龍圖里建國南路二段75-1號,02-23258576,全天開放,特優級,女、無障礙,地址：臺北市大安區龍圖里建國南路二段75-1號；電話：02-23258576；開放時間：全天開放；等級：特優級；,2,tw_public
台灣中油龍安加油站,TOILET,25.025713,121.535319,臺北市大安區龍門里和平東路二段2號,02-23631735,全天開放,特優級,女、無障礙、男,地址：臺北市大安區龍門里和平東路二段2號；電話：02-23631735；開放時間：全天開放；等級：特優級；,3,tw_public
台灣中油信義路加油站,TOILET,25.032931,121.555457,臺北市大安區通化里信義路四段374號,02-27081235,全天開放,特優級,女、男,地址：臺北市大安區通化里信義路四段374號；電話：02-27081235；開放時間：全天開放；等級：特優級；,3,tw_public
台灣中油富陽街加油站,TOILET,25.032931,121.555457,臺北市大安區通化里富陽街129號,02-27081235,全天開放,特優級,女、無障礙,地址：臺北市大安區通化里富陽街129號；電話：02-27081235；開放時間：全天開放；等級：特優級；,2,tw_public
富陽自然生態公園男廁,TOILET,25.016692,121.557396,臺北市大安區黎和里臥龍街272巷,02-23032451,全天開放,優等級,男,地址：臺北市大安區黎和里臥龍街272巷；電話：02-23032451；開放時間：全天開放；等級：優等級；,1,tw_public
富陽自然生態公園女廁,TOILET,25.0166288,121.5574122,臺北市大安區黎和里臥龍街272巷,02-23032451,全天開放,優等級,女,地址：臺北市大安區黎和里臥龍街272巷；電話：02-23032451；開放時間：全天開放；等級：優等級；,1,tw_public
富陽自然生態公園,TOILET,25.016709,121.5573558,臺北市大安區黎和里臥龍街272巷,02-23032451,全天開放,優等級,無障礙,地址：臺北市大安區黎和里臥龍街272巷；電話：02-23032451；開放時間：全天開放；等級：優等級；,1,tw_public
公有安東市場,TOILET,25.028117,121.54093,臺北市大安區龍陣里瑞安街75號,02-25583986,週一 全天關閉；週二 06：00~21：00；週三 06：00~21：00；週四 06：00~21：00；週五 06：00~21：00；週六 06：00~21：00；週日 06：00~21：00,優等級,女、無障礙、男,地址：臺北市大安區龍陣里瑞安街75號；電話：02-25583986；開放時間：週一 全天關閉；週二 06：00~21：00；週三 06：00~21：00；週四 06：00~21：00；週五 06：00~21：00；週六 06：00~21：00；週日 06：00~21：00；等級：優等級；,3,tw_public
捷運忠孝復興站文湖線,TOILET,25.041778,121.544984,臺北市大安區光武里忠孝東路三段302號,02-25363001,06：00~23：59,特優級,無障礙、親子、男、女,地址：臺北市大安區光武里忠孝東路三段302號；電話：02-25363001；開放時間：06：00~23：59；等級：特優級；,4,tw_public
龍門國中地下停車場2號,TOILET,25.024899,121.53803,臺北市大安區龍門里建國南路二段269號,02-27398983,全天開放,特優級,無障礙、男、女,地址：臺北市大安區龍門里建國南路二段269號；電話：02-27398983；開放時間：全天開放；等級：特優級；,10,tw_public
大安地政事務所1F,TOILET,25.033802,121.556442,臺北市大安區光信里信義路四段335巷6號,02-27548900,週一 08：30~17：00；週二 08：30~17：00；週三 08：30~17：00；週四 08：30~17：00；週五 08：30~17：00；週六 全天關閉；週日 全天關閉,特優級,親子、性別友善、女、男,地址：臺北市大安區光信里信義路四段335巷6號；電話：02-27548900；開放時間：週一 08：30~17：00；週二 08：30~17：00；週三 08：30~17：00；週四 08：30~17：00；週五 08：30~17：00；週六 全天關閉；週日 全天關閉；等級：特優級；,8,tw_public
太平洋崇光百貨復興館B3,TOILET,25.041212,121.543057,臺北市大安區義村里忠孝東路三段300號,02-27765555,週一 11：00~21：30；週二 11：00~21：30；週三 11：00~21：30；週四 11：00~21：00；週五 11：00~21：00；週六 11：00~22：00；週日 11：00~21：30,特優級,無障礙、男、女,地址：臺北市大安區義村里忠孝東路三段300號；電話：02-27765555；開放時間：週一 11：00~21：30；週二 11：00~21：30；週三 11：00~21：30；週四 11：00~21：00；週五 11：00~21：00；週六 11：00~22：00；週日 11：00~21：30；等級：特優級；,27,tw_public
摩斯漢堡和平東路店,TOILET,25.025943,121.534167,臺北市大安區龍坡里和平東路一段278號,02-27556440,週一 06：00~23：00；週二 05：30~23：00；週三 06：00~23：00；週四 06：00~23：00；週五 06：00~23：00；週六 06：00~23：00；週日 06：00~23：00,特優級,女、男,地址：臺北市大安區龍坡里和平東路一段278號；電話：02-27556440；開放時間：週一 06：00~23：00；週二 05：30~23：00；週三 06：00~23：00；週四 06：00~23：00；週五 06：00~23：00；週六 06：00~23：00；週日 06：00~23：00；等級：特優級；,2,tw_public
統一星巴克建和門市,TOILET,25.025445,121.537302,臺北市大安區龍門里和平東路二段42-1號,02-87867799,週一 06：30~21：30；週二 06：00~21：30；週三 06：00~21：30；週四 06：00~21：30；週五 06：30~21：30；週六 06：30~21：30；週日 06：30~21：30,特優級,女、男,地址：臺北市大安區龍門里和平東路二段42-1號；電話：02-87867799；開放時間：週一 06：30~21：30；週二 06：00~21：30；週三 06：00~21：30；週四 06：00~21：30；週五 06：30~21：30；週六 06：30~21：30；週日 06：30~21：30；等級：特優級；,2,tw_public
麥當勞台北光復店,TOILET,25.039542,121.557441,臺北市大安區正聲里光復南路286號,02-80661056,全天開放,特優級,女、無障礙、男女/混合、男,地址：臺北市大安區正聲里光復南路286號；電話：02-80661056；開放時間：全天開放；等級：特優級；,4,tw_public
大安運動中心1F,TOILET,25.020399,121.546,臺北市大安區臥龍里辛亥路三段55號,02-25702330,06：00~22：00,特優級,無障礙、男、女,地址：臺北市大安區臥龍里辛亥路三段55號；電話：02-25702330；開放時間：06：00~22：00；等級：特優級；,9,tw_public
新光三越百貨台北忠孝分公司一館2F,TOILET,25.04144,121.542219,臺北市大安區義村里忠孝東路3段268號,02-87895599,週一 11：00~21：30；週二 11：00~21：30；週三 11：00~21：30；週四 11：00~21：30；週五 11：00~22：00；週六 11：00~22：00；週日 11：00~21：30,特優級,男、女、無障礙,地址：臺北市大安區義村里忠孝東路3段268號；電話：02-87895599；開放時間：週一 11：00~21：30；週二 11：00~21：30；週三 11：00~21：30；週四 11：00~21：30；週五 11：00~22：00；週六 11：00~22：00；週日 11：00~21：30；等級：特優級；,8,tw_public
新光三越百貨台北忠孝分公司二館2F,TOILET,25.041432,121.542666,臺北市大安區義村里忠孝東路3段282號,02-87895599,週一 11：00~21：30；週二 11：00~21：30；週三 11：00~21：30；週四 11：00~21：30；週五 11：00~22：00；週六 11：00~22：00；週日 11：00~21：30,特優級,男、女、無障礙,地址：臺北市大安區義村里忠孝東路3段282號；電話：02-87895599；開放時間：週一 11：00~21：30；週二 11：00~21：30；週三 11：00~21：30；週四 11：00~21：30；週五 11：00~22：00；週六 11：00~22：00；週日 11：00~21：30；等級：特優級；,6,tw_public
捷運忠孝敦化站,TOILET,25.041269,121.551744,臺北市大安區建倫里忠孝東路四段182號,02-25363001,06：00~23：59,特優級,女,地址：臺北市大安區建倫里忠孝東路四段182號；電話：02-25363001；開放時間：06：00~23：59；等級：特優級；,1,tw_public
臺北市懷愛館丁級廳,TOILET,25.013755,121.553006,臺北市大安區學府里辛亥路三段330號,02-87329686,08：00~16：00,特優級,男、女、無障礙、男女/混合,地址：臺北市大安區學府里辛亥路三段330號；電話：02-87329686；開放時間：08：00~16：00；等級：特優級；,21,tw_public
太平洋崇光百貨台北忠孝館B2,TOILET,25.041902,121.544883,臺北市大安區光武里忠孝東路四段45號,02-27765555,週一 11：00~21：30；週二 11：00~21：30；週三 11：00~21：30；週四 11：00~21：30；週五 11：00~22：00；週六 11：00~22：00；週日 11：00~21：30,特優級,男、女、無障礙,地址：臺北市大安區光武里忠孝東路四段45號；電話：02-27765555；開放時間：週一 11：00~21：30；週二 11：00~21：30；週三 11：00~21：30；週四 11：00~21：30；週五 11：00~22：00；週六 11：00~22：00；週日 11：00~21：30；等級：特優級；,26,tw_public
捷運忠孝復興站板南線,TOILET,25.041778,121.544984,臺北市大安區光武里忠孝東路四段47號,02-25363001,06：00~23：59,特優級,親子、男、女,地址：臺北市大安區光武里忠孝東路四段47號；電話：02-25363001；開放時間：06：00~23：59；等級：特優級；,3,tw_public
中心綜合醫院2,TOILET,25.041865,121.54733,臺北市大安區光武里忠孝東路四段77號,02-27510221,週一 全天關閉；週二 全天關閉；週三 00：00~23：59；週四 全天關閉；週五 00：00~23：59；週六 全天關閉；週日 00：00~23：59,特優級,男、女,地址：臺北市大安區光武里忠孝東路四段77號；電話：02-27510221；開放時間：週一 全天關閉；週二 全天關閉；週三 00：00~23：59；週四 全天關閉；週五 00：00~23：59；週六 全天關閉；週日 00：00~23：59；等級：特優級；,4,tw_public
市民大道地下停車場復敦段B1,TOILET,25.044995,121.546166,臺北市大安區光武里市民大道四段70號,02-27211136,週一 全天關閉；週二 全天關閉；週三 00：00~23：59；週四 全天關閉；週五 00：00~23：59；週六 全天關閉；週日 00：00~23：59,特優級,女、無障礙、男,地址：臺北市大安區光武里市民大道四段70號；電話：02-27211136；開放時間：週一 全天關閉；週二 全天關閉；週三 00：00~23：59；週四 全天關閉；週五 00：00~23：59；週六 全天關閉；週日 00：00~23：59；等級：特優級；,5,tw_public
統一星巴克和平門市,TOILET,25.026824,121.522907,臺北市大安區古莊里和平東路一段2號,02-87867799,06：30~22：00,特優級,男女/混合,地址：臺北市大安區古莊里和平東路一段2號；電話：02-87867799；開放時間：06：30~22：00；等級：特優級；,1,tw_public
金華公園地下停車場,TOILET,25.029071,121.531708,臺北市大安區龍安里金華街190號,02-23578564,全天開放,特優級,男女/混合,地址：臺北市大安區龍安里金華街190號；電話：02-23578564；開放時間：全天開放；等級：特優級；,1,tw_public
大安區公所8F,TOILET,25.026579,121.534504,臺北市大安區龍安里新生南路二段86號,02-23511711,週一 08：30~17：30；週二 08：30~17：30；週三 08：30~17：30；週四 08：30~17：30；週五 08：30~17：30；週六 全天關閉；週日 全天關閉,特優級,男、女、性別友善、無障礙,地址：臺北市大安區龍安里新生南路二段86號；電話：02-23511711；開放時間：週一 08：30~17：30；週二 08：30~17：30；週三 08：30~17：30；週四 08：30~17：30；週五 08：30~17：30；週六 全天關閉；週日 全天關閉；等級：特優級；,20,tw_public
大安區戶政事務所2F,TOILET,25.0273715,121.5365767,臺北市大安區龍安里新生南路二段86號,02-23587877,週一 08：30~20：00；週二 08：30~20：00；週三 08：30~20：00；週四 08：30~20：00；週五 08：30~20：00；週六 全天關閉；週日 全天關閉,特優級,男,地址：臺北市大安區龍安里新生南路二段86號；電話：02-23587877；開放時間：週一 08：30~20：00；週二 08：30~20：00；週三 08：30~20：00；週四 08：30~20：00；週五 08：30~20：00；週六 全天關閉；週日 全天關閉；等級：特優級；,1,tw_public
和平東路派出所,TOILET,25.026631,121.530514,臺北市大安區龍安里和平東路一段143號,02-23256810,週一 全天關閉；週二 全天關閉；週三 00：00~23：59；週四 全天關閉；週五 00：00~23：59；週六 全天關閉；週日 00：00~23：59,特優級,男女/混合,地址：臺北市大安區龍安里和平東路一段143號；電話：02-23256810；開放時間：週一 全天關閉；週二 全天關閉；週三 00：00~23：59；週四 全天關閉；週五 00：00~23：59；週六 全天關閉；週日 00：00~23：59；等級：特優級；,1,tw_public
金華公園地下停車場,TOILET,25.0295879,121.5315798,臺北市大安區龍安里金華街190號,02-23578564,週一 全天關閉；週二 全天關閉；週三 00：00~23：59；週四 全天關閉；週五 00：00~23：59；週六 全天關閉；週日 00：00~23：59,特優級,女,地址：臺北市大安區龍安里金華街190號；電話：02-23578564；開放時間：週一 全天關閉；週二 全天關閉；週三 00：00~23：59；週四 全天關閉；週五 00：00~23：59；週六 全天關閉；週日 00：00~23：59；等級：特優級；,1,tw_public
金華公園地下停車場,TOILET,25.030066,121.531415,臺北市大安區福住里金華街190號,02-23578564,週一 全天關閉；週二 全天關閉；週三 00：00~23：59；週四 全天關閉；週五 00：00~23：59；週六 全天關閉；週日 00：00~23：59,特優級,親子,地址：臺北市大安區福住里金華街190號；電話：02-23578564；開放時間：週一 全天關閉；週二 全天關閉；週三 00：00~23：59；週四 全天關閉；週五 00：00~23：59；週六 全天關閉；週日 00：00~23：59；等級：特優級；,1,tw_public
公有錦安市場,TOILET,25.028704,121.529608,臺北市大安區錦安里永康街60號,02-25583986,13：00~22：00,優等級,男女/混合,地址：臺北市大安區錦安里永康街60號；電話：02-25583986；開放時間：13：00~22：00；等級：優等級；,1,tw_public
臺北市立圖書館龍安民眾閱覽室2F,TOILET,25.0285,121.52939,臺北市大安區錦安里永康街60號,02-27552823,週一 09：00~17：30；週二 08：30~21：00；週三 08：30~21：00；週四 08：30~21：00；週五 08：30~21：00；週六 08：30~21：00；週日 09：00~17：30,特優級,男、女、無障礙,地址：臺北市大安區錦安里永康街60號；電話：02-27552823；開放時間：週一 09：00~17：30；週二 08：30~21：00；週三 08：30~21：00；週四 08：30~21：00；週五 08：30~21：00；週六 08：30~21：00；週日 09：00~17：30；等級：特優級；,5,tw_public
永康公園男廁,TOILET,25.0314884,121.529654,臺北市大安區福住里永康街8號,02-23032451,週一 全天關閉；週二 全天關閉；週三 00：00~23：59；週四 全天關閉；週五 00：00~23：59；週六 全天關閉；週日 00：00~23：59,優等級,男,地址：臺北市大安區福住里永康街8號；電話：02-23032451；開放時間：週一 全天關閉；週二 全天關閉；週三 00：00~23：59；週四 全天關閉；週五 00：00~23：59；週六 全天關閉；週日 00：00~23：59；等級：優等級；,1,tw_public
捷運東門站付費區,TOILET,25.033693,121.529439,臺北市大安區永康里信義路2段166號,02-25363001,06：00~23：59,特優級,男、女,地址：臺北市大安區永康里信義路2段166號；電話：02-25363001；開放時間：06：00~23：59；等級：特優級；,2,tw_public
台灣中油金山南路加油站男廁,TOILET,25.0314702,121.5272534,臺北市大安區永康里金山南路二段77號,02-23518346,07：00~23：59,特優級,男,地址：臺北市大安區永康里金山南路二段77號；電話：02-23518346；開放時間：07：00~23：59；等級：特優級；,1,tw_public
摩斯漢堡金山店,TOILET,25.030784,121.526792,臺北市大安區永康里金山南路二段121號,02-27556440,06：00~23：00,特優級,男女/混合,地址：臺北市大安區永康里金山南路二段121號；電話：02-27556440；開放時間：06：00~23：00；等級：特優級；,1,tw_public
吉野家東門店,TOILET,25.033574,121.527364,臺北市大安區永康里金山南路二段9號,02-23412458,08：00~23：00,特優級,男女/混合,地址：臺北市大安區永康里金山南路二段9號；電話：02-23412458；開放時間：08：00~23：00；等級：特優級；,1,tw_public
羅斯福路派出所,TOILET,25.011841,121.537075,臺北市大安區學府里羅斯福路四段113巷13號,02-23256810,週一 全天關閉；週二 全天關閉；週三 00：00~23：59；週四 全天關閉；週五 00：00~23：59；週六 全天關閉；週日 00：00~23：59,特優級,男女/混合,地址：臺北市大安區學府里羅斯福路四段113巷13號；電話：02-23256810；開放時間：週一 全天關閉；週二 全天關閉；週三 00：00~23：59；週四 全天關閉；週五 00：00~23：59；週六 全天關閉；週日 00：00~23：59；等級：特優級；,1,tw_public
大安23號,TOILET,25.013548,121.548436,臺北市大安區學府里基隆路三段155巷182弄坡上,02-25920199,週一 全天關閉；週二 全天關閉；週三 00：00~23：59；週四 全天關閉；週五 00：00~23：59；週六 全天關閉；週日 00：00~23：59,特優級,男女/混合,地址：臺北市大安區學府里基隆路三段155巷182弄坡上；電話：02-25920199；開放時間：週一 全天關閉；週二 全天關閉；週三 00：00~23：59；週四 全天關閉；週五 00：00~23：59；週六 全天關閉；週日 00：00~23：59；等級：特優級；,1,tw_public
麥當勞羅斯福店,TOILET,25.027517,121.522347,臺北市大安區錦華里羅斯福路二段45號,02-80661056,週一 全天關閉；週二 全天關閉；週三 00：00~23：59；週四 全天關閉；週五 00：00~23：59；週六 全天關閉；週日 00：00~23：59,特優級,男女/混合,地址：臺北市大安區錦華里羅斯福路二段45號；電話：02-80661056；開放時間：週一 全天關閉；週二 全天關閉；週三 00：00~23：59；週四 全天關閉；週五 00：00~23：59；週六 全天關閉；週日 00：00~23：59；等級：特優級；,1,tw_public
大安高工地下停車場,TOILET,25.032729,121.541055,臺北市大安區龍圖里信義路三段166巷6弄12號,02-27027924,全天開放,特優級,男、女、無障礙,地址：臺北市大安區龍圖里信義路三段166巷6弄12號；電話：02-27027924；開放時間：全天開放；等級：特優級；,3,tw_public
大安2號,TOILET,25.029996,121.541679,臺北市大安區龍圖里瑞安街208巷47弄39號慈湄宮旁,02-25920199,週一 全天關閉；週二 全天關閉；週三 00：00~23：59；週四 全天關閉；週五 00：00~23：59；週六 全天關閉；週日 00：00~23：59,特優級,男女/混合,地址：臺北市大安區龍圖里瑞安街208巷47弄39號慈湄宮旁；電話：02-25920199；開放時間：週一 全天關閉；週二 全天關閉；週三 00：00~23：59；週四 全天關閉；週五 00：00~23：59；週六 全天關閉；週日 00：00~23：59；等級：特優級；,1,tw_public
勝利加油站男廁,TOILET,25.030952,121.538139,臺北市大安區龍圖里建國南路二段75-1號,02-23258576,週一 全天關閉；週二 全天關閉；週三 00：00~23：59；週四 全天關閉；週五 00：00~23：59；週六 全天關閉；週日 00：00~23：59,特優級,男,地址：臺北市大安區龍圖里建國南路二段75-1號；電話：02-23258576；開放時間：週一 全天關閉；週二 全天關閉；週三 00：00~23：59；週四 全天關閉；週五 00：00~23：59；週六 全天關閉；週日 00：00~23：59；等級：特優級；,1,tw_public
臺北市立圖書館總館B2,TOILET,25.029136,121.538199,臺北市大安區新龍里建國南路二段125號,02-27552823,週一 09：00~17：00；週二 08：30~21：00；週三 08：30~21：00；週四 08：30~21：00；週五 08：30~21：00；週六 08：30~21：00；週日 09：00~17：00,特優級,男、女、無障礙,地址：臺北市大安區新龍里建國南路二段125號；電話：02-27552823；開放時間：週一 09：00~17：00；週二 08：30~21：00；週三 08：30~21：00；週四 08：30~21：00；週五 08：30~21：00；週六 08：30~21：00；週日 09：00~17：00；等級：特優級；,30,tw_public
臺北市立圖書館總館4F,TOILET,25.029152,121.538369,臺北市大安區新龍里建國南路二段125號,02-27552823,週一 09：00~17：00；週二 08：30~21：00；週三 08：30~21：00；週四 08：30~21：00；週五 08：30~21：00；週六 08：30~21：00；週日 09：00~17：00,特優級,男,地址：臺北市大安區新龍里建國南路二段125號；電話：02-27552823；開放時間：週一 09：00~17：00；週二 08：30~21：00；週三 08：30~21：00；週四 08：30~21：00；週五 08：30~21：00；週六 08：30~21：00；週日 09：00~17：00；等級：特優級；,1,tw_public
摩斯漢堡復興南路店,TOILET,25.028452,121.545621,臺北市大安區龍雲里復興南路二段151巷47號,02-27058524,06：00~22：00,特優級,男女/混合,地址：臺北市大安區龍雲里復興南路二段151巷47號；電話：02-27058524；開放時間：06：00~22：00；等級：特優級；,1,tw_public
捷運科技大樓站,TOILET,25.026098,121.543666,臺北市大安區龍生里復興南路2段235號,02-25363001,06：00~23：59,特優級,男、女、無障礙,地址：臺北市大安區龍生里復興南路2段235號；電話：02-25363001；開放時間：06：00~23：59；等級：特優級；,3,tw_public
中國文化大學推廣教育部B4,TOILET,25.02595,121.538039,臺北市大安區龍生里建國南路二段231號,02-27005858,週一 09：00~21：00；週二 09：00~21：00；週三 09：00~21：00；週四 09：00~21：00；週五 09：00~21：00；週六 09：00~21：00；週日 09：00~17：00,特優級,男、女、男女/混合,地址：臺北市大安區龍生里建國南路二段231號；電話：02-27005858；開放時間：週一 09：00~21：00；週二 09：00~21：00；週三 09：00~21：00；週四 09：00~21：00；週五 09：00~21：00；週六 09：00~21：00；週日 09：00~17：00；等級：特優級；,12,tw_public
中國文化大學推廣教育部3F女廁,TOILET,25.0260007,121.5381539,臺北市大安區龍生里建國南路二段231號,02-27005858,週一 09：00~21：00；週二 09：00~21：00；週三 09：00~21：00；週四 09：00~21：00；週五 09：00~21：00；週六 09：00~21：00；週日 09：00~17：00,特優級,女,地址：臺北市大安區龍生里建國南路二段231號；電話：02-27005858；開放時間：週一 09：00~21：00；週二 09：00~21：00；週三 09：00~21：00；週四 09：00~21：00；週五 09：00~21：00；週六 09：00~21：00；週日 09：00~17：00；等級：特優級；,1,tw_public
捷運大安站文湖線男廁,TOILET,25.033128,121.544002,臺北市大安區住安里信義路四段2號,02-25363001,06：00~23：59,特優級,男、女、無障礙,地址：臺北市大安區住安里信義路四段2號；電話：02-25363001；開放時間：06：00~23：59；等級：特優級；,3,tw_public
瑞安街派出所,TOILET,25.031137,121.544994,臺北市大安區住安里瑞安街23巷17號,02-23256810,週一 全天關閉；週二 全天關閉；週三 00：00~23：59；週四 全天關閉；週五 00：00~23：59；週六 全天關閉；週日 00：00~23：59,特優級,男女/混合,地址：臺北市大安區住安里瑞安街23巷17號；電話：02-23256810；開放時間：週一 全天關閉；週二 全天關閉；週三 00：00~23：59；週四 全天關閉；週五 00：00~23：59；週六 全天關閉；週日 00：00~23：59；等級：特優級；,1,tw_public
捷運大安站淡水信義線連通層,TOILET,25.033128,121.544002,臺北市大安區住安里信義路三段180號,02-25363001,06：00~23：59,特優級,女、男、無障礙,地址：臺北市大安區住安里信義路三段180號；電話：02-25363001；開放時間：06：00~23：59；等級：特優級；,5,tw_public
安和路派出所,TOILET,25.032972,121.552107,臺北市大安區義安里信義路四段216號,02-23256810,週一 全天關閉；週二 全天關閉；週三 00：00~23：59；週四 全天關閉；週五 00：00~23：59；週六 全天關閉；週日 00：00~23：59,特優級,男女/混合,地址：臺北市大安區義安里信義路四段216號；電話：02-23256810；開放時間：週一 全天關閉；週二 全天關閉；週三 00：00~23：59；週四 全天關閉；週五 00：00~23：59；週六 全天關閉；週日 00：00~23：59；等級：特優級；,1,tw_public
捷運安和站淡水信義線,TOILET,25.033037,121.551996,臺北市大安區義安里信義路四段212號,02-25363001,週一 06：00~23：59；週二 06：00~23：59；週三 06：00~23：59；週四 06：00~23：59；週五 06：00~23：59；週六 06：00~23：30；週日 06：00~23：59,特優級,男、女、親子,地址：臺北市大安區義安里信義路四段212號；電話：02-25363001；開放時間：週一 06：00~23：59；週二 06：00~23：59；週三 06：00~23：59；週四 06：00~23：59；週五 06：00~23：59；週六 06：00~23：30；週日 06：00~23：59；等級：特優級；,3,tw_public
三商巧福通化店,TOILET,25.032558,121.554385,臺北市大安區通化里信義路四段294巷9號,02-27005714,11：00~21：30,特優級,男女/混合,地址：臺北市大安區通化里信義路四段294巷9號；電話：02-27005714；開放時間：11：00~21：30；等級：特優級；,1,tw_public
大安6號,TOILET,25.029554,121.557086,臺北市大安區通化里臨江街102之5號旁巷內,02-25920199,週一 全天關閉；週二 全天關閉；週三 00：00~23：59；週四 全天關閉；週五 00：00~23：59；週六 全天關閉；週日 00：00~23：59,優等級,男女/混合,地址：臺北市大安區通化里臨江街102之5號旁巷內；電話：02-25920199；開放時間：週一 全天關閉；週二 全天關閉；週三 00：00~23：59；週四 全天關閉；週五 00：00~23：59；週六 全天關閉；週日 00：00~23：59；等級：優等級；,1,tw_public
大安7號,TOILET,25.029554,121.557086,臺北市大安區通化里臨江街106之2號旁巷內,02-25920199,週一 全天關閉；週二 全天關閉；週三 00：00~23：59；週四 全天關閉；週五 00：00~23：59；週六 全天關閉；週日 00：00~23：59,優等級,男女/混合,地址：臺北市大安區通化里臨江街106之2號旁巷內；電話：02-25920199；開放時間：週一 全天關閉；週二 全天關閉；週三 00：00~23：59；週四 全天關閉；週五 00：00~23：59；週六 全天關閉；週日 00：00~23：59；等級：優等級；,1,tw_public
大安8號,TOILET,25.030069,121.554478,臺北市大安區臨江里臨江街112巷旁巷內,02-25920199,週一 全天關閉；週二 全天關閉；週三 00：00~23：59；週四 全天關閉；週五 00：00~23：59；週六 全天關閉；週日 00：00~23：59,特優級,男女/混合,地址：臺北市大安區臨江里臨江街112巷旁巷內；電話：02-25920199；開放時間：週一 全天關閉；週二 全天關閉；週三 00：00~23：59；週四 全天關閉；週五 00：00~23：59；週六 全天關閉；週日 00：00~23：59；等級：特優級；,1,tw_public
台灣中油基隆路加油站,TOILET,25.027691,121.555835,臺北市大安區臨江里基隆路二段162號,02-27383992,全天開放,特優級,男,地址：臺北市大安區臨江里基隆路二段162號；電話：02-27383992；開放時間：全天開放；等級：特優級；,1,tw_public
台灣中油基隆路加油站,TOILET,25.027701,121.556025,臺北市大安區臨江里基隆路二段162號,02-27383992,全天開放,特優級,女、無障礙,地址：臺北市大安區臨江里基隆路二段162號；電話：02-27383992；開放時間：全天開放；等級：特優級；,2,tw_public
遠企購物中心5F,TOILET,25.026299,121.549678,臺北市大安區全安里敦化南路二段203號,02-23776666,11：00~21：30,特優級,男、女、無障礙,地址：臺北市大安區全安里敦化南路二段203號；電話：02-23776666；開放時間：11：00~21：30；等級：特優級；,14,tw_public
遠企購物中心3F,TOILET,25.026208,121.549263,臺北市大安區全安里敦化南路二段203號,02-23776666,11：00~21：30,特優級,男,地址：臺北市大安區全安里敦化南路二段203號；電話：02-23776666；開放時間：11：00~21：30；等級：特優級；,1,tw_public
公有成功中繼市場1F,TOILET,25.026917,121.5480888,臺北市大安區群賢里敦化南路二段120號,02-25583986,週一 全天關閉；週二 07：30~14：00；週三 07：30~14：00；週四 07：30~14：00；週五 07：30~14：00；週六 07：30~14：00；週日 07：30~14：00,優等級,男,地址：臺北市大安區群賢里敦化南路二段120號；電話：02-25583986；開放時間：週一 全天關閉；週二 07：30~14：00；週三 07：30~14：00；週四 07：30~14：00；週五 07：30~14：00；週六 07：30~14：00；週日 07：30~14：00；等級：優等級；,1,tw_public
臺北市立圖書館成功閱覽室,TOILET,25.025504,121.545281,臺北市大安區群賢里和平東路二段311巷29號,02-27552823,週一 09：00~17：00；週二 08：30~21：00；週三 08：30~21：00；週四 08：30~21：00；週五 08：30~21：00；週六 08：30~21：00；週日 09：00~17：00,特優級,男、女、無障礙,地址：臺北市大安區群賢里和平東路二段311巷29號；電話：02-27552823；開放時間：週一 09：00~17：00；週二 08：30~21：00；週三 08：30~21：00；週四 08：30~21：00；週五 08：30~21：00；週六 08：30~21：00；週日 09：00~17：00；等級：特優級；,3,tw_public
麥當勞復興二店,TOILET,25.02567,121.54365,臺北市大安區群賢里復興南路二段273號,02-80661056,週一 全天關閉；週二 全天關閉；週三 00：00~23：59；週四 全天關閉；週五 00：00~23：59；週六 全天關閉；週日 00：00~23：59,特優級,男女/混合,地址：臺北市大安區群賢里復興南路二段273號；電話：02-80661056；開放時間：週一 全天關閉；週二 全天關閉；週三 00：00~23：59；週四 全天關閉；週五 00：00~23：59；週六 全天關閉；週日 00：00~23：59；等級：特優級；,1,tw_public
統一星巴克興和門市,TOILET,25.025602,121.543647,臺北市大安區群賢里復興南路二段275號,02-87867799,07：00~21：30,特優級,男女/混合,地址：臺北市大安區群賢里復興南路二段275號；電話：02-87867799；開放時間：07：00~21：30；等級：特優級；,1,tw_public
爭鮮科技店,TOILET,25.026589,121.543674,臺北市大安區群賢里復興南路二段191號,02-27099117,11：00~21：30,特優級,男女/混合,地址：臺北市大安區群賢里復興南路二段191號；電話：02-27099117；開放時間：11：00~21：30；等級：特優級；,1,tw_public
漢堡王敦南店,TOILET,25.024428,121.548338,臺北市大安區虎嘯里敦化南路二段164號,02-23622986,07：00~23：00,特優級,男女/混合,地址：臺北市大安區虎嘯里敦化南路二段164號；電話：02-23622986；開放時間：07：00~23：00；等級：特優級；,1,tw_public
大安區福安宮,TOILET,25.022105,121.547479,臺北市大安區虎嘯里臥龍街61號,02-27372679,週一 全天關閉；週二 全天關閉；週三 00：00~23：59；週四 全天關閉；週五 00：00~23：59；週六 全天關閉；週日 00：00~23：59,特優級,男女/混合,地址：臺北市大安區虎嘯里臥龍街61號；電話：02-27372679；開放時間：週一 全天關閉；週二 全天關閉；週三 00：00~23：59；週四 全天關閉；週五 00：00~23：59；週六 全天關閉；週日 00：00~23：59；等級：特優級；,1,tw_public
大安區健康服務中心1F,TOILET,25.021574,121.544299,臺北市大安區臥龍里辛亥路三段15號,02-27335831,週一 08：30~17：30；週二 08：30~17：30；週三 08：30~17：30；週四 08：30~17：30；週五 08：30~17：30；週六 全天關閉；週日 全天關閉,特優級,女、男,地址：臺北市大安區臥龍里辛亥路三段15號；電話：02-27335831；開放時間：週一 08：30~17：30；週二 08：30~17：30；週三 08：30~17：30；週四 08：30~17：30；週五 08：30~17：30；週六 全天關閉；週日 全天關閉；等級：特優級；,4,tw_public
臺北市立圖書館道藩分館,TOILET,25.021574,121.544047,臺北市大安區臥龍里辛亥路三段11號,02-27552823,週一 09：00~17：00；週二 08：30~21：00；週三 08：30~21：00；週四 08：30~21：00；週五 08：30~21：00；週六 08：30~21：00；週日 09：00~17：00,特優級,男、女,地址：臺北市大安區臥龍里辛亥路三段11號；電話：02-27552823；開放時間：週一 09：00~17：00；週二 08：30~21：00；週三 08：30~21：00；週四 08：30~21：00；週五 08：30~21：00；週六 08：30~21：00；週日 09：00~17：00；等級：特優級；,2,tw_public
大安運動中心2F,TOILET,25.02065,121.545499,臺北市大安區臥龍里辛亥路三段55號,02-25702330,06：00~22：00,特優級,女、男,地址：臺北市大安區臥龍里辛亥路三段55號；電話：02-25702330；開放時間：06：00~22：00；等級：特優級；,3,tw_public
大安區健康服務中心1F,TOILET,25.0215384,121.5443552,臺北市大安區臥龍里辛亥路三段15號,02-27335831,週一 08：30~17：30；週二 08：30~17：30；週三 08：30~17：30；週四 08：30~17：30；週五 08：30~17：30；週六 全天關閉；週日 全天關閉,特優級,無障礙,地址：臺北市大安區臥龍里辛亥路三段15號；電話：02-27335831；開放時間：週一 08：30~17：30；週二 08：30~17：30；週三 08：30~17：30；週四 08：30~17：30；週五 08：30~17：30；週六 全天關閉；週日 全天關閉；等級：特優級；,1,tw_public
統一星巴克辛亥門市,TOILET,25.021688,121.541245,臺北市大安區龍淵里辛亥路二段175號,02-87867799,週一 06：30~20：00；週二 06：30~20：00；週三 06：30~20：00；週四 06：30~20：00；週五 06：30~20：00；週六 06：30~19：00；週日 06：30~19：00,特優級,男女/混合,地址：臺北市大安區龍淵里辛亥路二段175號；電話：02-87867799；開放時間：週一 06：30~20：00；週二 06：30~20：00；週三 06：30~20：00；週四 06：30~20：00；週五 06：30~20：00；週六 06：30~19：00；週日 06：30~19：00；等級：特優級；,1,tw_public
捷運大安森林公園站東,TOILET,25.033322,121.536285,臺北市大安區龍門里信義路三段100號,02-25363001,週一 全天關閉；週二 全天關閉；週三 00：00~23：59；週四 全天關閉；週五 00：00~23：59；週六 全天關閉；週日 00：00~23：59,特優級,男、女、親子,地址：臺北市大安區龍門里信義路三段100號；電話：02-25363001；開放時間：週一 全天關閉；週二 全天關閉；週三 00：00~23：59；週四 全天關閉；週五 00：00~23：59；週六 全天關閉；週日 00：00~23：59；等級：特優級；,6,tw_public
大安森林公園7號,TOILET,25.0267392,121.5363268,臺北市大安區龍門里新生南路二段1號,02-23032451,週一 全天關閉；週二 全天關閉；週三 00：00~23：59；週四 全天關閉；週五 00：00~23：59；週六 全天關閉；週日 00：00~23：59,優等級,男、女、無障礙,地址：臺北市大安區龍門里新生南路二段1號；電話：02-23032451；開放時間：週一 全天關閉；週二 全天關閉；週三 00：00~23：59；週四 全天關閉；週五 00：00~23：59；週六 全天關閉；週日 00：00~23：59；等級：優等級；,3,tw_public
麥當勞台北新生店,TOILET,25.017987,121.533328,臺北市大安區大學里新生南路三段88之2號,02-80661056,週一 全天關閉；週二 全天關閉；週三 00：00~23：59；週四 全天關閉；週五 00：00~23：59；週六 全天關閉；週日 00：00~23：59,特優級,男女/混合,地址：臺北市大安區大學里新生南路三段88之2號；電話：02-80661056；開放時間：週一 全天關閉；週二 全天關閉；週三 00：00~23：59；週四 全天關閉；週五 00：00~23：59；週六 全天關閉；週日 00：00~23：59；等級：特優級；,1,tw_public
西雅圖咖啡台大店,TOILET,25.018122,121.533355,臺北市大安區大學里新生南路三段88號,02-27776950,07：00~22：00,特優級,男女/混合,地址：臺北市大安區大學里新生南路三段88號；電話：02-27776950；開放時間：07：00~22：00；等級：特優級；,1,tw_public
統一星巴克羅斯福門市,TOILET,25.017447,121.531859,臺北市大安區大學里羅斯福路三段301號,02-87867799,07：00~21：00,特優級,男女/混合,地址：臺北市大安區大學里羅斯福路三段301號；電話：02-87867799；開放時間：07：00~21：00；等級：特優級；,1,tw_public
摩斯漢堡羅斯福路店,TOILET,25.019487,121.529781,臺北市大安區大學里羅斯福路三段233號,02-27556440,週一 全天關閉；週二 全天關閉；週三 00：00~23：59；週四 全天關閉；週五 00：00~23：59；週六 全天關閉；週日 00：00~23：59,特優級,男女/混合,地址：臺北市大安區大學里羅斯福路三段233號；電話：02-27556440；開放時間：週一 全天關閉；週二 全天關閉；週三 00：00~23：59；週四 全天關閉；週五 00：00~23：59；週六 全天關閉；週日 00：00~23：59；等級：特優級；,1,tw_public
捷運六張犁站,TOILET,25.023719,121.552853,臺北市大安區芳和里和平東路3段168號,02-25363001,06：00~23：59,特優級,男、女、無障礙,地址：臺北市大安區芳和里和平東路3段168號；電話：02-25363001；開放時間：06：00~23：59；等級：特優級；,3,tw_public
嘉興公園,TOILET,25.0214704,121.5520424,臺北市大安區芳和里樂業街96號,02-23032451,週一 全天關閉；週二 全天關閉；週三 00：00~23：59；週四 全天關閉；週五 00：00~23：59；週六 全天關閉；週日 00：00~23：59,優等級,男,地址：臺北市大安區芳和里樂業街96號；電話：02-23032451；開放時間：週一 全天關閉；週二 全天關閉；週三 00：00~23：59；週四 全天關閉；週五 00：00~23：59；週六 全天關閉；週日 00：00~23：59；等級：優等級；,1,tw_public
嘉興公園,TOILET,25.0214607,121.5520155,臺北市大安區芳和里樂業街96號,02-23032451,週一 全天關閉；週二 全天關閉；週三 00：00~23：59；週四 全天關閉；週五 00：00~23：59；週六 全天關閉；週日 00：00~23：59,優等級,女,地址：臺北市大安區芳和里樂業街96號；電話：02-23032451；開放時間：週一 全天關閉；週二 全天關閉；週三 00：00~23：59；週四 全天關閉；週五 00：00~23：59；週六 全天關閉；週日 00：00~23：59；等級：優等級；,1,tw_public
嘉興公園,TOILET,25.0214996,121.5520585,臺北市大安區芳和里樂業街96號,02-23032451,週一 全天關閉；週二 全天關閉；週三 00：00~23：59；週四 全天關閉；週五 00：00~23：59；週六 全天關閉；週日 00：00~23：59,優等級,無障礙,地址：臺北市大安區芳和里樂業街96號；電話：02-23032451；開放時間：週一 全天關閉；週二 全天關閉；週三 00：00~23：59；週四 全天關閉；週五 00：00~23：59；週六 全天關閉；週日 00：00~23：59；等級：優等級；,1,tw_public
臥龍街派出所,TOILET,25.017945,121.551929,臺北市大安區黎元里臥龍街185號,02-23256810,週一 全天關閉；週二 全天關閉；週三 00：00~23：59；週四 全天關閉；週五 00：00~23：59；週六 全天關閉；週日 00：00~23：59,特優級,男女/混合,地址：臺北市大安區黎元里臥龍街185號；電話：02-23256810；開放時間：週一 全天關閉；週二 全天關閉；週三 00：00~23：59；週四 全天關閉；週五 00：00~23：59；週六 全天關閉；週日 00：00~23：59；等級：特優級；,1,tw_public
統一超商臺北市黎元門市,TOILET,25.018008,121.550848,臺北市大安區黎元里臥龍街188巷1號,02-23778253,週一 全天關閉；週二 全天關閉；週三 00：00~23：59；週四 全天關閉；週五 00：00~23：59；週六 全天關閉；週日 00：00~23：59,特優級,男女/混合,地址：臺北市大安區黎元里臥龍街188巷1號；電話：02-23778253；開放時間：週一 全天關閉；週二 全天關閉；週三 00：00~23：59；週四 全天關閉；週五 00：00~23：59；週六 全天關閉；週日 00：00~23：59；等級：特優級；,1,tw_public
福州山公園,TOILET,25.018111,121.552539,臺北市大安區黎元里臥龍街195巷,02-23032451,週一 全天關閉；週二 全天關閉；週三 00：00~23：59；週四 全天關閉；週五 00：00~23：59；週六 全天關閉；週日 00：00~23：59,優等級,男、性別友善、無障礙,地址：臺北市大安區黎元里臥龍街195巷；電話：02-23032451；開放時間：週一 全天關閉；週二 全天關閉；週三 00：00~23：59；週四 全天關閉；週五 00：00~23：59；週六 全天關閉；週日 00：00~23：59；等級：優等級；,3,tw_public
捷運麟光站,TOILET,25.018367,121.558612,臺北市大安區黎和里和平東路3段410號,02-25363001,06：00~23：59,特優級,男、女、無障礙,地址：臺北市大安區黎和里和平東路3段410號；電話：02-25363001；開放時間：06：00~23：59；等級：特優級；,3,tw_public
台灣中油富陽街加油站男廁,TOILET,25.01912,121.55691,臺北市大安區黎和里富陽街129號,02-27324229,全天開放,特優級,男,地址：臺北市大安區黎和里富陽街129號；電話：02-27324229；開放時間：全天開放；等級：特優級；,1,tw_public
市民大道地下停車場敦延段B1,TOILET,25.0445675,121.5505028,臺北市大安區建安里市民大道四段145號,02-25774364,週一 全天關閉；週二 全天關閉；週三 00：00~23：59；週四 全天關閉；週五 00：00~23：59；週六 全天關閉；週日 00：00~23：59,特優級,女,地址：臺北市大安區建安里市民大道四段145號；電話：02-25774364；開放時間：週一 全天關閉；週二 全天關閉；週三 00：00~23：59；週四 全天關閉；週五 00：00~23：59；週六 全天關閉；週日 00：00~23：59；等級：特優級；,1,tw_public
市民大道地下停車場敦延段B1,TOILET,25.044522,121.550052,臺北市大安區建安里市民大道四段145號,02-25774364,週一 全天關閉；週二 全天關閉；週三 00：00~23：59；週四 全天關閉；週五 00：00~23：59；週六 全天關閉；週日 00：00~23：59,特優級,無障礙、女、男,地址：臺北市大安區建安里市民大道四段145號；電話：02-25774364；開放時間：週一 全天關閉；週二 全天關閉；週三 00：00~23：59；週四 全天關閉；週五 00：00~23：59；週六 全天關閉；週日 00：00~23：59；等級：特優級；,3,tw_public
捷運忠孝敦化站,TOILET,25.041264,121.551717,臺北市大安區建倫里忠孝東路四段182號,02-25363001,06：00~23：59,特優級,男、親子,地址：臺北市大安區建倫里忠孝東路四段182號；電話：02-25363001；開放時間：06：00~23：59；等級：特優級；,2,tw_public
明曜百貨公司9F,TOILET,25.04124,121.552113,臺北市大安區建倫里忠孝東路四段200號,02-27771266,週一 11：00~21：30；週二 11：00~21：30；週三 11：00~21：30；週四 11：00~21：30；週五 11：00~22：00；週六 11：00~22：00；週日 11：00~21：30,特優級,男、女、無障礙,地址：臺北市大安區建倫里忠孝東路四段200號；電話：02-27771266；開放時間：週一 11：00~21：30；週二 11：00~21：30；週三 11：00~21：30；週四 11：00~21：30；週五 11：00~22：00；週六 11：00~22：00；週日 11：00~21：30；等級：特優級；,16,tw_public
中山醫院,TOILET,25.036552,121.549711,臺北市大安區敦安里仁愛路四段112巷11號,02-27081166,週一 全天關閉；週二 全天關閉；週三 00：00~23：59；週四 全天關閉；週五 00：00~23：59；週六 全天關閉；週日 00：00~23：59,特優級,男、女、性別友善、無障礙,地址：臺北市大安區敦安里仁愛路四段112巷11號；電話：02-27081166；開放時間：週一 全天關閉；週二 全天關閉；週三 00：00~23：59；週四 全天關閉；週五 00：00~23：59；週六 全天關閉；週日 00：00~23：59；等級：特優級；,7,tw_public
僑安地下停車場,TOILET,25.041139,121.556837,臺北市大安區正聲里忠孝東路四段306號,02-27115547,週一 全天關閉；週二 全天關閉；週三 00：00~23：59；週四 全天關閉；週五 00：00~23：59；週六 全天關閉；週日 00：00~23：59,特優級,女、男,地址：臺北市大安區正聲里忠孝東路四段306號；電話：02-27115547；開放時間：週一 全天關閉；週二 全天關閉；週三 00：00~23：59；週四 全天關閉；週五 00：00~23：59；週六 全天關閉；週日 00：00~23：59；等級：特優級；,2,tw_public
摩斯漢堡信義通化店,TOILET,25.032943,121.554802,臺北市大安區正聲里信義路四段304號,02-27556440,06：00~23：00,特優級,男女/混合,地址：臺北市大安區正聲里信義路四段304號；電話：02-27556440；開放時間：06：00~23：00；等級：特優級；,1,tw_public
麥當勞台北信義店,TOILET,25.033349,121.554526,臺北市大安區敦煌里信義路四段273號,02-80661056,06：00~23：59,特優級,男女/混合,地址：臺北市大安區敦煌里信義路四段273號；電話：02-80661056；開放時間：06：00~23：59；等級：特優級；,1,tw_public
財團法人國泰綜合醫院急診,TOILET,25.036942,121.553693,臺北市大安區敦煌里仁愛路四段280號,02-27082121,週一 全天關閉；週二 全天關閉；週三 00：00~23：59；週四 全天關閉；週五 00：00~23：59；週六 全天關閉；週日 00：00~23：59,特優級,男、女、男女/混合,地址：臺北市大安區敦煌里仁愛路四段280號；電話：02-27082121；開放時間：週一 全天關閉；週二 全天關閉；週三 00：00~23：59；週四 全天關閉；週五 00：00~23：59；週六 全天關閉；週日 00：00~23：59；等級：特優級；,8,tw_public
秀傳醫院,TOILET,25.042992,121.556495,臺北市大安區華聲里光復南路116巷1號,(02)27717172,週一 全天關閉；週二 全天關閉；週三 00：00~23：59；週四 全天關閉；週五 00：00~23：59；週六 全天關閉；週日 00：00~23：59,特優級,男女/混合,地址：臺北市大安區華聲里光復南路116巷1號；電話：(02)27717172；開放時間：週一 全天關閉；週二 全天關閉；週三 00：00~23：59；週四 全天關閉；週五 00：00~23：59；週六 全天關閉；週日 00：00~23：59；等級：特優級；,1,tw_public
必勝客光復店,TOILET,25.041558,121.557436,臺北市大安區華聲里忠孝東路四段341號,02-27766600,11：00~21：30,特優級,男、女,地址：臺北市大安區華聲里忠孝東路四段341號；電話：02-27766600；開放時間：11：00~21：30；等級：特優級；,2,tw_public
全聯福利中心大安延吉店,TOILET,25.044212,121.554272,臺北市大安區華聲里市民大道四段190號,02-25328000,08：00~23：00,特優級,男、女、無障礙,地址：臺北市大安區華聲里市民大道四段190號；電話：02-25328000；開放時間：08：00~23：00；等級：特優級；,3,tw_public
統一超商臺北市統家門市,TOILET,25.039954,121.5532,臺北市大安區車層里忠孝東路四段216巷27弄1號,02-23778253,週一 全天關閉；週二 全天關閉；週三 00：00~23：59；週四 全天關閉；週五 00：00~23：59；週六 全天關閉；週日 00：00~23：59,特優級,男女/混合,地址：臺北市大安區車層里忠孝東路四段216巷27弄1號；電話：02-23778253；開放時間：週一 全天關閉；週二 全天關閉；週三 00：00~23：59；週四 全天關閉；週五 00：00~23：59；週六 全天關閉；週日 00：00~23：59；等級：特優級；,1,tw_public
大安地政事務所2F,TOILET,25.033834,121.556434,臺北市大安區光信里信義路四段335巷6號,02-27548900,週一 08：30~17：00；週二 08：30~17：00；週三 08：30~17：00；週四 08：30~17：00；週五 08：30~17：00；週六 全天關閉；週日 全天關閉,特優級,男,地址：臺北市大安區光信里信義路四段335巷6號；電話：02-27548900；開放時間：週一 08：30~17：00；週二 08：30~17：00；週三 08：30~17：00；週四 08：30~17：00；週五 08：30~17：00；週六 全天關閉；週日 全天關閉；等級：特優級；,1,tw_public
臺北市立圖書館延吉民眾閱覽室3F,TOILET,25.036394,121.555161,臺北市大安區光信里延吉街236巷17號,02-27552823,週一 09：00~17：00；週二 08：30~21：00；週三 08：30~21：00；週四 08：30~21：00；週五 08：30~21：00；週六 08：30~21：00；週日 09：00~17：00,特優級,性別友善、男、女,地址：臺北市大安區光信里延吉街236巷17號；電話：02-27552823；開放時間：週一 09：00~17：00；週二 08：30~21：00；週三 08：30~21：00；週四 08：30~21：00；週五 08：30~21：00；週六 08：30~21：00；週日 09：00~17：00；等級：特優級；,3,tw_public
臺北市立圖書館延吉民眾閱覽室3F,TOILET,25.036219,121.554498,臺北市大安區光信里延吉街236巷17號,02-27552823,週一 09：00~17：00；週二 08：30~21：00；週三 08：30~21：00；週四 08：30~21：00；週五 08：30~21：00；週六 08：30~21：00；週日 09：00~17：00,特優級,親子,地址：臺北市大安區光信里延吉街236巷17號；電話：02-27552823；開放時間：週一 09：00~17：00；週二 08：30~21：00；週三 08：30~21：00；週四 08：30~21：00；週五 08：30~21：00；週六 08：30~21：00；週日 09：00~17：00；等級：特優級；,1,tw_public
摩斯漢堡光復店,TOILET,25.034587,121.557338,臺北市大安區光信里光復南路552號,02-27556440,06：00~23：59,特優級,男女/混合,地址：臺北市大安區光信里光復南路552號；電話：02-27556440；開放時間：06：00~23：59；等級：特優級；,1,tw_public
家樂福便利購超市大安臨江分公司,TOILET,25.030101,121.554981,臺北市大安區通化里臨江街87號,02-27008368,週一 全天關閉；週二 全天關閉；週三 00：00~23：59；週四 全天關閉；週五 00：00~23：59；週六 全天關閉；週日 00：00~23：59,特優級,男、性別友善,地址：臺北市大安區通化里臨江街87號；電話：02-27008368；開放時間：週一 全天關閉；週二 全天關閉；週三 00：00~23：59；週四 全天關閉；週五 00：00~23：59；週六 全天關閉；週日 00：00~23：59；等級：特優級；,2,tw_public
大安1號,TOILET,25.037144,121.547818,臺北市大安區德安里四維路6巷2號對面,02-25920199,週一 全天關閉；週二 全天關閉；週三 00：00~23：59；週四 全天關閉；週五 00：00~23：59；週六 全天關閉；週日 00：00~23：59,特優級,男女/混合,地址：臺北市大安區德安里四維路6巷2號對面；電話：02-25920199；開放時間：週一 全天關閉；週二 全天關閉；週三 00：00~23：59；週四 全天關閉；週五 00：00~23：59；週六 全天關閉；週日 00：00~23：59；等級：特優級；,1,tw_public
聯合醫院仁愛院區,TOILET,25.03754,121.545302,臺北市大安區仁慈里仁愛路四段10號,02-27093600,週一 全天關閉；週二 全天關閉；週三 00：00~23：59；週四 全天關閉；週五 00：00~23：59；週六 全天關閉；週日 00：00~23：59,特優級,男、男女/混合、女、親子、性別友善、無障礙,地址：臺北市大安區仁慈里仁愛路四段10號；電話：02-27093600；開放時間：週一 全天關閉；週二 全天關閉；週三 00：00~23：59；週四 全天關閉；週五 00：00~23：59；週六 全天關閉；週日 00：00~23：59；等級：特優級；,17,tw_public
聯合醫院仁愛院區急診,TOILET,25.037512,121.545224,臺北市大安區仁慈里仁愛路四段10號,02-27093600,週一 全天關閉；週二 全天關閉；週三 00：00~23：59；週四 全天關閉；週五 00：00~23：59；週六 全天關閉；週日 00：00~23：59,特優級,女、性別友善、無障礙、男,地址：臺北市大安區仁慈里仁愛路四段10號；電話：02-27093600；開放時間：週一 全天關閉；週二 全天關閉；週三 00：00~23：59；週四 全天關閉；週五 00：00~23：59；週六 全天關閉；週日 00：00~23：59；等級：特優級；,6,tw_public
統一星巴克興南門市,TOILET,25.03376,121.543808,臺北市大安區仁慈里復興南路一段323號,02-87867799,07：00~21：30,特優級,男女/混合,地址：臺北市大安區仁慈里復興南路一段323號；電話：02-87867799；開放時間：07：00~21：30；等級：特優級；,1,tw_public
附中公園地下停車場,TOILET,25.036111,121.541984,臺北市大安區和安里復興南路一段340巷11號,02-27014453,全天開放,特優級,男女/混合、無障礙,地址：臺北市大安區和安里復興南路一段340巷11號；電話：02-27014453；開放時間：全天開放；等級：特優級；,2,tw_public
公有信義市場,TOILET,25.034002,121.539057,臺北市大安區和安里信義路三段107號,02-25583986,05：30~19：00,優等級,男女/混合,地址：臺北市大安區和安里信義路三段107號；電話：02-25583986；開放時間：05：30~19：00；等級：優等級；,1,tw_public
大安分局,TOILET,25.037849,121.533162,臺北市大安區民炤里仁愛路三段2號,02-23256810,週一 全天關閉；週二 全天關閉；週三 00：00~23：59；週四 全天關閉；週五 00：00~23：59；週六 全天關閉；週日 00：00~23：59,特優級,男、女,地址：臺北市大安區民炤里仁愛路三段2號；電話：02-23256810；開放時間：週一 全天關閉；週二 全天關閉；週三 00：00~23：59；週四 全天關閉；週五 00：00~23：59；週六 全天關閉；週日 00：00~23：59；等級：特優級；,2,tw_public
大安花市3號,TOILET,25.0368981,121.5380949,臺北市大安區和安里仁愛路與建國南路口高架橋下,02-25920199,週一 全天關閉；週二 全天關閉；週三 00：00~23：59；週四 全天關閉；週五 00：00~23：59；週六 全天關閉；週日 00：00~23：59,特優級,男女/混合,地址：臺北市大安區和安里仁愛路與建國南路口高架橋下；電話：02-25920199；開放時間：週一 全天關閉；週二 全天關閉；週三 00：00~23：59；週四 全天關閉；週五 00：00~23：59；週六 全天關閉；週日 00：00~23：59；等級：特優級；,1,tw_public
摩斯漢堡新生店,TOILET,25.034493,121.533023,臺北市大安區民炤里新生南路一段161-1號,02-27556440,06：00~23：59,特優級,男女/混合,地址：臺北市大安區民炤里新生南路一段161-1號；電話：02-27556440；開放時間：06：00~23：59；等級：特優級；,1,tw_public
新生南路派出所,TOILET,25.037769,121.534057,臺北市大安區民炤里仁愛路三段18號,02-23256810,週一 全天關閉；週二 全天關閉；週三 00：00~23：59；週四 全天關閉；週五 00：00~23：59；週六 全天關閉；週日 00：00~23：59,特優級,男女/混合,地址：臺北市大安區民炤里仁愛路三段18號；電話：02-23256810；開放時間：週一 全天關閉；週二 全天關閉；週三 00：00~23：59；週四 全天關閉；週五 00：00~23：59；週六 全天關閉；週日 00：00~23：59；等級：特優級；,1,tw_public
大安森林公園地下停車場男廁,TOILET,25.031983,121.537325,臺北市大安區龍門里建國南路2段2號,02-27092940,全天開放,特優級,男、女,地址：臺北市大安區龍門里建國南路2段2號；電話：02-27092940；開放時間：全天開放；等級：特優級；,2,tw_public
建國橋下仁愛濟南段停車場(假日玉市),TOILET,25.039554,121.537761,臺北市大安區民輝里建國南路高架橋下仁愛路至濟南路,02-27095574,全天開放,特優級,男女/混合,地址：臺北市大安區民輝里建國南路高架橋下仁愛路至濟南路；電話：02-27095574；開放時間：全天開放；等級：特優級；,1,tw_public
建國計程車服務站,TOILET,25.044163,121.536235,臺北市大安區民輝里建國南路1段63號之1,02-27274168,週一 全天開放；週二 全天開放；週三 全天開放；週四 全天開放；週五 全天開放；週六 全天關閉；週日 全天關閉,特優級,男,地址：臺北市大安區民輝里建國南路1段63號之1；電話：02-27274168；開放時間：週一 全天開放；週二 全天開放；週三 全天開放；週四 全天開放；週五 全天開放；週六 全天關閉；週日 全天關閉；等級：特優級；,1,tw_public
敦化南路派出所,TOILET,25.038958,121.543927,臺北市大安區仁愛里復興南路一段219-1號,02-23256810,週一 全天關閉；週二 全天關閉；週三 00：00~23：59；週四 全天關閉；週五 00：00~23：59；週六 全天關閉；週日 00：00~23：59,特優級,男、女、無障礙,地址：臺北市大安區仁愛里復興南路一段219-1號；電話：02-23256810；開放時間：週一 全天關閉；週二 全天關閉；週三 00：00~23：59；週四 全天關閉；週五 00：00~23：59；週六 全天關閉；週日 00：00~23：59；等級：特優級；,3,tw_public
宏恩醫院門診,TOILET,25.038495,121.547028,臺北市大安區仁愛里仁愛路四段61號,(02) 27713163,週一 全天關閉；週二 全天關閉；週三 00：00~23：59；週四 全天關閉；週五 00：00~23：59；週六 全天關閉；週日 00：00~23：59,特優級,男、女、男女/混合,地址：臺北市大安區仁愛里仁愛路四段61號；電話：(02) 27713163；開放時間：週一 全天關閉；週二 全天關閉；週三 00：00~23：59；週四 全天關閉；週五 00：00~23：59；週六 全天關閉；週日 00：00~23：59；等級：特優級；,3,tw_public
太平洋崇光百貨敦化分館B2,TOILET,25.040146,121.548441,臺北市大安區仁愛里敦化南路1段246號,02-27365253,週一 11：00~21：30；週二 11：00~21：30；週三 11：00~21：30；週四 11：00~21：30；週五 11：00~22：00；週六 11：00~22：00；週日 11：00~21：30,特優級,男、女,地址：臺北市大安區仁愛里敦化南路1段246號；電話：02-27365253；開放時間：週一 11：00~21：30；週二 11：00~21：30；週三 11：00~21：30；週四 11：00~21：30；週五 11：00~22：00；週六 11：00~22：00；週日 11：00~21：30；等級：特優級；,13,tw_public
太平洋崇光百貨敦化分館2F,TOILET,25.040146,121.548442,臺北市大安區仁愛里敦化南路1段246號,02-27365253,週一 11：00~21：30；週二 11：00~21：30；週三 11：00~21：30；週四 11：00~21：30；週五 11：00~20：00；週六 11：00~22：00；週日 11：00~21：30,特優級,女、親子、無障礙,地址：臺北市大安區仁愛里敦化南路1段246號；電話：02-27365253；開放時間：週一 11：00~21：30；週二 11：00~21：30；週三 11：00~21：30；週四 11：00~21：30；週五 11：00~20：00；週六 11：00~22：00；週日 11：00~21：30；等級：特優級；,5,tw_public
建國橋下仁愛濟南段停車場(假日玉市),TOILET,25.0386365,121.5378957,臺北市大安區民輝里建國橋下仁愛路-濟南路間停車場,02-27095574,週一 全天關閉；週二 全天關閉；週三 00：00~23：59；週四 全天關閉；週五 00：00~23：59；週六 全天關閉；週日 00：00~23：59,特優級,男,地址：臺北市大安區民輝里建國橋下仁愛路-濟南路間停車場；電話：02-27095574；開放時間：週一 全天關閉；週二 全天關閉；週三 00：00~23：59；週四 全天關閉；週五 00：00~23：59；週六 全天關閉；週日 00：00~23：59；等級：特優級；,1,tw_public
建國橋下仁愛濟南段停車場(假日玉市),TOILET,25.0386511,121.537893,臺北市大安區民輝里建國橋下仁愛路-濟南路間停車場,02-27095574,週一 全天關閉；週二 全天關閉；週三 00：00~23：59；週四 全天關閉；週五 00：00~23：59；週六 全天關閉；週日 00：00~23：59,特優級,無障礙,地址：臺北市大安區民輝里建國橋下仁愛路-濟南路間停車場；電話：02-27095574；開放時間：週一 全天關閉；週二 全天關閉；週三 00：00~23：59；週四 全天關閉；週五 00：00~23：59；週六 全天關閉；週日 00：00~23：59；等級：特優級；,1,tw_public
西雅圖咖啡忠孝延吉店,TOILET,25.041198,121.554284,臺北市大安區仁愛里忠孝東路四段250號,02-27776950,週一 07：30~22：30；週二 07：30~23：00；週三 07：30~23：00；週四 07：30~23：00；週五 07：30~23：00；週六 07：30~22：30；週日 07：30~23：00,特優級,男、女,地址：臺北市大安區仁愛里忠孝東路四段250號；電話：02-27776950；開放時間：週一 07：30~22：30；週二 07：30~23：00；週三 07：30~23：00；週四 07：30~23：00；週五 07：30~23：00；週六 07：30~22：30；週日 07：30~23：00；等級：特優級；,2,tw_public
京星港式飲茶,TOILET,25.041201,121.548469,臺北市大安區仁愛里敦化南路一段216號,02-27412625,全天開放,特優級,男,地址：臺北市大安區仁愛里敦化南路一段216號；電話：02-27412625；開放時間：全天開放；等級：特優級；,1,tw_public
太平洋崇光百貨復興館9F,TOILET,25.041449,121.543418,臺北市大安區義村里忠孝東路三段300號,02-27765555,週一 11：00~21：30；週二 11：00~21：30；週三 11：00~21：30；週四 11：00~21：30；週五 11：00~22：00；週六 11：00~22：00；週日 11：00~21：30,特優級,男,地址：臺北市大安區義村里忠孝東路三段300號；電話：02-27765555；開放時間：週一 11：00~21：30；週二 11：00~21：30；週三 11：00~21：30；週四 11：00~21：30；週五 11：00~22：00；週六 11：00~22：00；週日 11：00~21：30；等級：特優級；,1,tw_public
捷運忠孝新生站板南線,TOILET,25.042455,121.533216,臺北市大安區民輝里新生南路一段67號,02-25363001,06：00~23：59,特優級,男、女、無障礙、親子,地址：臺北市大安區民輝里新生南路一段67號；電話：02-25363001；開放時間：06：00~23：59；等級：特優級；,6,tw_public
台灣中油新生南路加油站,TOILET,25.03848,121.533195,臺北市大安區民輝里仁愛路三段1號,02-27112316,07：00~22：00,特優級,男、無障礙,地址：臺北市大安區民輝里仁愛路三段1號；電話：02-27112316；開放時間：07：00~22：00；等級：特優級；,2,tw_public
丹堤咖啡濟南店,TOILET,25.04026,121.534638,臺北市大安區民輝里濟南路三段25號,02-27402350,07：30~22：00,特優級,男女/混合,地址：臺北市大安區民輝里濟南路三段25號；電話：02-27402350；開放時間：07：30~22：00；等級：特優級；,1,tw_public
建國計程車服務站,TOILET,25.044163,121.536235,臺北市大安區民輝里建國南路一段34號,02-27274168,週一 08：30~17：30；週二 08：30~17：30；週三 08：30~17：30；週四 08：30~17：30；週五 08：30~17：30；週六 全天關閉；週日 全天關閉,特優級,女,地址：臺北市大安區民輝里建國南路一段34號；電話：02-27274168；開放時間：週一 08：30~17：30；週二 08：30~17：30；週三 08：30~17：30；週四 08：30~17：30；週五 08：30~17：30；週六 全天關閉；週日 全天關閉；等級：特優級；,1,tw_public
財團法人國泰綜合醫院東3樓婦產科,TOILET,25.036826,121.553681,臺北市大安區敦煌里仁愛路四段280號,02-27082121,週一 全天關閉；週二 全天關閉；週三 00：00~23：59；週四 全天關閉；週五 00：00~23：59；週六 全天關閉；週日 00：00~23：59,特優級,女,地址：臺北市大安區敦煌里仁愛路四段280號；電話：02-27082121；開放時間：週一 全天關閉；週二 全天關閉；週三 00：00~23：59；週四 全天關閉；週五 00：00~23：59；週六 全天關閉；週日 00：00~23：59；等級：特優級；,1,tw_public
統一星巴克龍門門市,TOILET,25.041327,121.54837,臺北市大安區仁愛里忠孝東路四段134號,02-87867799,週一 07：00~22：00；週二 07：00~22：00；週三 07：00~22：00；週四 07：00~22：00；週五 07：00~23：00；週六 07：00~23：00；週日 07：00~22：00,特優級,男女/混合,地址：臺北市大安區仁愛里忠孝東路四段134號；電話：02-87867799；開放時間：週一 07：00~22：00；週二 07：00~22：00；週三 07：00~22：00；週四 07：00~22：00；週五 07：00~23：00；週六 07：00~23：00；週日 07：00~22：00；等級：特優級；,1,tw_public
公有成功中繼市場1F,TOILET,25.0269486,121.5480968,臺北市大安區群賢里敦化南路二段120號,02-25583986,週一 全天關閉；週二 07：30~14：00；週三 07：30~14：00；週四 07：30~14：00；週五 07：30~14：00；週六 07：30~14：00；週日 07：30~14：00,優等級,女,地址：臺北市大安區群賢里敦化南路二段120號；電話：02-25583986；開放時間：週一 全天關閉；週二 07：30~14：00；週三 07：30~14：00；週四 07：30~14：00；週五 07：30~14：00；週六 07：30~14：00；週日 07：30~14：00；等級：優等級；,1,tw_public
公有成功中繼市場2F,TOILET,25.0269316,121.5480754,臺北市大安區群賢里敦化南路二段120號,02-25583986,週一 全天關閉；週二 07：30~14：00；週三 07：30~14：00；週四 07：30~14：00；週五 07：30~14：00；週六 07：30~14：00；週日 07：30~14：00,優等級,男,地址：臺北市大安區群賢里敦化南路二段120號；電話：02-25583986；開放時間：週一 全天關閉；週二 07：30~14：00；週三 07：30~14：00；週四 07：30~14：00；週五 07：30~14：00；週六 07：30~14：00；週日 07：30~14：00；等級：優等級；,1,tw_public
公有成功中繼市場2F,TOILET,25.0269352,121.5480995,臺北市大安區群賢里敦化南路二段120號,02-25583986,週一 全天關閉；週二 07：30~14：00；週三 07：30~14：00；週四 07：30~14：00；週五 07：30~14：00；週六 07：30~14：00；週日 07：30~14：00,優等級,女,地址：臺北市大安區群賢里敦化南路二段120號；電話：02-25583986；開放時間：週一 全天關閉；週二 07：30~14：00；週三 07：30~14：00；週四 07：30~14：00；週五 07：30~14：00；週六 07：30~14：00；週日 07：30~14：00；等級：優等級；,1,tw_public
公有成功中繼市場2F,TOILET,25.0269389,121.5480834,臺北市大安區群賢里敦化南路二段120號,02-25583986,週一 全天關閉；週二 07：30~14：00；週三 07：00~14：00；週四 07：30~14：00；週五 07：30~14：00；週六 07：30~14：00；週日 07：30~14：00,優等級,無障礙,地址：臺北市大安區群賢里敦化南路二段120號；電話：02-25583986；開放時間：週一 全天關閉；週二 07：30~14：00；週三 07：00~14：00；週四 07：30~14：00；週五 07：30~14：00；週六 07：30~14：00；週日 07：30~14：00；等級：優等級；,1,tw_public
明曜百貨公司B1,TOILET,25.041209,121.552018,臺北市大安區建倫里忠孝東路四段200號,02-27771266,週一 11：00~21：30；週二 11：00~20：30；週三 11：00~21：30；週四 11：00~21：30；週五 11：00~22：00；週六 11：00~22：00；週日 11：00~21：30,特優級,女,地址：臺北市大安區建倫里忠孝東路四段200號；電話：02-27771266；開放時間：週一 11：00~21：30；週二 11：00~20：30；週三 11：00~21：30；週四 11：00~21：30；週五 11：00~22：00；週六 11：00~22：00；週日 11：00~21：30；等級：特優級；,1,tw_public
中正16號,TOILET,25.009349,121.539625,臺北市大安區學府里羅斯福路四段119巷66弄1號旁,02-25920199,週一 全天關閉；週二 全天關閉；週三 00：00~23：59；週四 全天關閉；週五 00：00~23：59；週六 全天關閉；週日 00：00~23：59,特優級,男女/混合,地址：臺北市大安區學府里羅斯福路四段119巷66弄1號旁；電話：02-25920199；開放時間：週一 全天關閉；週二 全天關閉；週三 00：00~23：59；週四 全天關閉；週五 00：00~23：59；週六 全天關閉；週日 00：00~23：59；等級：特優級；,1,tw_public
市民大道地下停車場敦延段B2,TOILET,25.0445141,121.550535,臺北市大安區建安里市民大道四段145號,02-25774364,全天開放,特優級,男,地址：臺北市大安區建安里市民大道四段145號；電話：02-25774364；開放時間：全天開放；等級：特優級；,1,tw_public
臺北市懷愛館丁級廳,TOILET,25.013755,121.553007,臺北市大安區學府里辛亥路三段330號,02-87329686,週一 全天關閉；週二 全天關閉；週三 全天關閉；週四 全天關閉；週五 全天關閉；週六 全天關閉；週日 08：00~16：00,特優級,女、無障礙,地址：臺北市大安區學府里辛亥路三段330號；電話：02-87329686；開放時間：週一 全天關閉；週二 全天關閉；週三 全天關閉；週四 全天關閉；週五 全天關閉；週六 全天關閉；週日 08：00~16：00；等級：特優級；,4,tw_public
臺北市懷愛館景仰左3F,TOILET,25.014062,121.5501594,臺北市大安區學府里辛亥路三段330號,02-87329686,08：00~16：00,特優級,男,地址：臺北市大安區學府里辛亥路三段330號；電話：02-87329686；開放時間：08：00~16：00；等級：特優級；,1,tw_public
爭鮮古亭店,TOILET,25.0265618,121.5230758,臺北市大安區古莊里羅斯福路二段73號,02-23649862,11：00~21：30,特優級,男女/混合,地址：臺北市大安區古莊里羅斯福路二段73號；電話：02-23649862；開放時間：11：00~21：30；等級：特優級；,1,tw_public
漢堡王新師大店男女共用,TOILET,25.0239256,121.528002,臺北市大安區古莊里師大路86巷1號,02-23622986,09：00~21：00,特優級,男女/混合,地址：臺北市大安區古莊里師大路86巷1號；電話：02-23622986；開放時間：09：00~21：00；等級：特優級；,1,tw_public
臺灣當代文化實驗場服務中心男廁,TOILET,25.039531,121.539817,臺北市大安區義村里仁愛路三段55號,02-87735087#224,週一 09：00~18：00；週二 09：00~18：00；週三 09：00~18：00；週四 09：00~18：00；週五 09：00~18：00；週六 全天關閉；週日 全天關閉,特優級,男,地址：臺北市大安區義村里仁愛路三段55號；電話：02-87735087#224；開放時間：週一 09：00~18：00；週二 09：00~18：00；週三 09：00~18：00；週四 09：00~18：00；週五 09：00~18：00；週六 全天關閉；週日 全天關閉；等級：特優級；,1,tw_public
臺灣當代文化實驗場圖書館1F,TOILET,25.039392,121.539858,臺北市大安區義村里仁愛路三段55號,02-87735087#224,週一 09：00~18：00；週二 09：00~18：00；週三 09：00~18：00；週四 09：00~18：00；週五 09：00~18：00；週六 全天關閉；週日 全天關閉,特優級,女、男女/混合、男、無障礙,地址：臺北市大安區義村里仁愛路三段55號；電話：02-87735087#224；開放時間：週一 09：00~18：00；週二 09：00~18：00；週三 09：00~18：00；週四 09：00~18：00；週五 09：00~18：00；週六 全天關閉；週日 全天關閉；等級：特優級；,10,tw_public
大安森林公園地下停車場,TOILET,25.031983,121.537325,臺北市大安區龍門里忠孝東路三段300號,02-27092940,全天開放,特優級,無障礙,地址：臺北市大安區龍門里忠孝東路三段300號；電話：02-27092940；開放時間：全天開放；等級：特優級；,1,tw_public
臺大癌醫中心E區門診,TOILET,25.014688,121.544196,臺北市大安區學府里基隆路三段155巷57號,02- 23220322,全天開放,特優級,性別友善、親子、男、女,地址：臺北市大安區學府里基隆路三段155巷57號；電話：02- 23220322；開放時間：全天開放；等級：特優級；,4,tw_public
摩斯漢堡長興店男廁,TOILET,25.017644,121.545016,臺北市大安區學府里基隆路三段85號,02-27556440,07：00~20：00,特優級,男女/混合、女,地址：臺北市大安區學府里基隆路三段85號；電話：02-27556440；開放時間：07：00~20：00；等級：特優級；,2,tw_public
大安國中地下停車場,TOILET,25.0299321,121.5461604,臺北市大安區龍雲里大安路二段79號,02-27080213,全天開放,特優級,男、女,地址：臺北市大安區龍雲里大安路二段79號；電話：02-27080213；開放時間：全天開放；等級：特優級；,2,tw_public
大安國中地下停車場,TOILET,25.0299321,121.5461604,臺北市大安區龍雲里中山北路二段113號,0939273810,全天開放,特優級,無障礙,地址：臺北市大安區龍雲里中山北路二段113號；電話：0939273810；開放時間：全天開放；等級：特優級；,1,tw_public
聯合醫院仁愛院區外科,TOILET,25.0372474,121.5452245,臺北市大安區仁慈里仁愛路四段10號,02-27093600,全天開放,特優級,性別友善,地址：臺北市大安區仁慈里仁愛路四段10號；電話：02-27093600；開放時間：全天開放；等級：特優級；,1,tw_public
僑安地下停車場,TOILET,25.0406823,121.5565881,臺北市大安區正聲里忠孝東路四段306號,02-27115547,全天開放,特優級,無障礙,地址：臺北市大安區正聲里忠孝東路四段306號；電話：02-27115547；開放時間：全天開放；等級：特優級；,1,tw_public
統一超商臺北市敦信門市,TOILET,25.034433,121.550158,臺北市大安區敦安里仁愛路四段122巷50號,02-23778253,週一 全天關閉；週二 全天關閉；週三 00：00~23：59；週四 全天關閉；週五 00：00~23：59；週六 全天關閉；週日 00：00~23：59,特優級,男女/混合,地址：臺北市大安區敦安里仁愛路四段122巷50號；電話：02-23778253；開放時間：週一 全天關閉；週二 全天關閉；週三 00：00~23：59；週四 全天關閉；週五 00：00~23：59；週六 全天關閉；週日 00：00~23：59；等級：特優級；,1,tw_public